{
 "type": "FeatureCollection",
 "note": "Грунтовая дорога от западного края села к переезду через Ишим и к фермам на левом берегу: видна на спутниковом снимке, переданном автором сайта в октябре 2026 г.; точность около 5–10 м.",
 "labels": [],
 "features": [
  {
   "type": "Feature",
   "properties": {
    "kind": "road",
    "road": "minor",
    "src": "satellite-2026"
   },
   "geometry": {
    "type": "LineString",
    "coordinates": [
     [
      72.321794,
      50.763063
     ],
     [
      72.321153,
      50.763213
     ],
     [
      72.320128,
      50.763443
     ],
     [
      72.318847,
      50.763715
     ],
     [
      72.317672,
      50.764013
     ],
     [
      72.316498,
      50.764352
     ],
     [
      72.315857,
      50.764528
     ],
     [
      72.31543,
      50.764731
     ],
     [
      72.315175,
      50.765069
     ],
     [
      72.315047,
      50.765475
     ],
     [
      72.31507,
      50.76611
     ]
    ]
   }
  }
 ]
}