{
 "type": "FeatureCollection",
 "note": "Улицы, которых не было в основе, и названия улиц: сняты со скриншота карты села, предоставленного автором сайта в октябре 2026 г. (Яндекс Карты); точность около 5–10 м.",
 "labels": [
  {
   "name": "ул. Жастар",
   "lat": 50.766256,
   "lon": 72.32534
  },
  {
   "name": "ул. Жастар",
   "lat": 50.762338,
   "lon": 72.32488
  },
  {
   "name": "ул. Жастар",
   "lat": 50.761069,
   "lon": 72.32421
  },
  {
   "name": "ул. Жастар",
   "lat": 50.759523,
   "lon": 72.32342
  },
  {
   "name": "ул. Жастар",
   "lat": 50.758479,
   "lon": 72.322762
  },
  {
   "name": "ул. Жастар",
   "lat": 50.757557,
   "lon": 72.322098
  },
  {
   "name": "ул. Жастар",
   "lat": 50.756319,
   "lon": 72.32136
  },
  {
   "name": "ул. Жастар",
   "lat": 50.755273,
   "lon": 72.320683
  },
  {
   "name": "ул. Достык",
   "lat": 50.760492,
   "lon": 72.320628
  },
  {
   "name": "ул. Достык",
   "lat": 50.760221,
   "lon": 72.322319
  },
  {
   "name": "ул. Достык",
   "lat": 50.759573,
   "lon": 72.324816
  },
  {
   "name": "ул. Береке",
   "lat": 50.762318,
   "lon": 72.320635
  },
  {
   "name": "ул. Береке",
   "lat": 50.761071,
   "lon": 72.319819
  },
  {
   "name": "ул. Енбек",
   "lat": 50.758329,
   "lon": 72.315433
  },
  {
   "name": "ул. Енбек",
   "lat": 50.758118,
   "lon": 72.316448
  },
  {
   "name": "ул. Енбек",
   "lat": 50.757665,
   "lon": 72.319008
  },
  {
   "name": "ул. Есиль",
   "lat": 50.765586,
   "lon": 72.327274
  },
  {
   "name": "ул. Есиль",
   "lat": 50.76375,
   "lon": 72.327277
  },
  {
   "name": "ул. Есиль",
   "lat": 50.761499,
   "lon": 72.326834
  },
  {
   "name": "ул. Есиль",
   "lat": 50.759157,
   "lon": 72.326079
  },
  {
   "name": "ул. Есиль",
   "lat": 50.758064,
   "lon": 72.32523
  },
  {
   "name": "ул. Есиль",
   "lat": 50.756961,
   "lon": 72.324194
  },
  {
   "name": "ул. Есиль",
   "lat": 50.755244,
   "lon": 72.322682
  },
  {
   "name": "ул. Есиль",
   "lat": 50.755743,
   "lon": 72.324324
  },
  {
   "name": "ул. Женис",
   "lat": 50.766435,
   "lon": 72.322905
  },
  {
   "name": "ул. Женис",
   "lat": 50.764142,
   "lon": 72.322927
  },
  {
   "name": "ул. Женис",
   "lat": 50.762425,
   "lon": 72.322624
  },
  {
   "name": "ул. Женис",
   "lat": 50.761006,
   "lon": 72.321927
  },
  {
   "name": "ул. Женис",
   "lat": 50.759547,
   "lon": 72.321075
  },
  {
   "name": "ул. Женис",
   "lat": 50.758129,
   "lon": 72.320208
  },
  {
   "name": "ул. Женис",
   "lat": 50.756625,
   "lon": 72.319205
  },
  {
   "name": "ул. Женис",
   "lat": 50.755691,
   "lon": 72.318621
  }
 ],
 "features": [
  {
   "type": "Feature",
   "properties": {
    "kind": "road",
    "road": "minor",
    "src": "streets-2026"
   },
   "geometry": {
    "type": "LineString",
    "coordinates": [
     [
      72.320703,
      50.753845
     ],
     [
      72.320609,
      50.754006
     ],
     [
      72.320409,
      50.754184
     ],
     [
      72.319207,
      50.754872
     ],
     [
      72.319289,
      50.754961
     ]
    ]
   }
  },
  {
   "type": "Feature",
   "properties": {
    "kind": "road",
    "road": "minor",
    "src": "streets-2026"
   },
   "geometry": {
    "type": "LineString",
    "coordinates": [
     [
      72.323155,
      50.755863
     ],
     [
      72.323271,
      50.755826
     ],
     [
      72.323697,
      50.755797
     ],
     [
      72.324685,
      50.755733
     ],
     [
      72.325488,
      50.755677
     ]
    ]
   }
  },
  {
   "type": "Feature",
   "properties": {
    "kind": "road",
    "road": "street",
    "src": "streets-2026"
   },
   "geometry": {
    "type": "LineString",
    "coordinates": [
     [
      72.31858,
      50.755621
     ],
     [
      72.318477,
      50.755565
     ],
     [
      72.318344,
      50.755357
     ],
     [
      72.318504,
      50.75532
     ],
     [
      72.319005,
      50.755042
     ],
     [
      72.319451,
      50.754915
     ],
     [
      72.31991,
      50.754721
     ],
     [
      72.320121,
      50.754713
     ],
     [
      72.320307,
      50.754427
     ],
     [
      72.320156,
      50.754329
     ]
    ]
   }
  },
  {
   "type": "Feature",
   "properties": {
    "kind": "road",
    "road": "minor",
    "src": "streets-2026"
   },
   "geometry": {
    "type": "LineString",
    "coordinates": [
     [
      72.31973,
      50.756322
     ],
     [
      72.31983,
      50.756271
     ],
     [
      72.320997,
      50.756035
     ],
     [
      72.321124,
      50.756014
     ]
    ]
   }
  },
  {
   "type": "Feature",
   "properties": {
    "kind": "road",
    "road": "minor",
    "src": "streets-2026"
   },
   "geometry": {
    "type": "LineString",
    "coordinates": [
     [
      72.32291,
      50.756353
     ],
     [
      72.321658,
      50.756631
     ],
     [
      72.321531,
      50.756667
     ]
    ]
   }
  },
  {
   "type": "Feature",
   "properties": {
    "kind": "road",
    "road": "minor",
    "src": "streets-2026"
   },
   "geometry": {
    "type": "LineString",
    "coordinates": [
     [
      72.321515,
      50.756642
     ],
     [
      72.321389,
      50.756685
     ],
     [
      72.321004,
      50.756733
     ]
    ]
   }
  },
  {
   "type": "Feature",
   "properties": {
    "kind": "road",
    "road": "minor",
    "src": "streets-2026"
   },
   "geometry": {
    "type": "LineString",
    "coordinates": [
     [
      72.323254,
      50.756705
     ],
     [
      72.321889,
      50.757008
     ],
     [
      72.321776,
      50.757046
     ]
    ]
   }
  },
  {
   "type": "Feature",
   "properties": {
    "kind": "road",
    "road": "minor",
    "src": "streets-2026"
   },
   "geometry": {
    "type": "LineString",
    "coordinates": [
     [
      72.321754,
      50.757012
     ],
     [
      72.321638,
      50.757048
     ],
     [
      72.321205,
      50.757123
     ]
    ]
   }
  },
  {
   "type": "Feature",
   "properties": {
    "kind": "road",
    "road": "minor",
    "src": "streets-2026"
   },
   "geometry": {
    "type": "LineString",
    "coordinates": [
     [
      72.323557,
      50.757022
     ],
     [
      72.322129,
      50.757361
     ],
     [
      72.322017,
      50.757411
     ]
    ]
   }
  },
  {
   "type": "Feature",
   "properties": {
    "kind": "road",
    "road": "minor",
    "src": "streets-2026"
   },
   "geometry": {
    "type": "LineString",
    "coordinates": [
     [
      72.321994,
      50.757378
     ],
     [
      72.321875,
      50.757412
     ],
     [
      72.321414,
      50.757507
     ]
    ]
   }
  },
  {
   "type": "Feature",
   "properties": {
    "kind": "road",
    "road": "minor",
    "src": "streets-2026"
   },
   "geometry": {
    "type": "LineString",
    "coordinates": [
     [
      72.322238,
      50.75773
     ],
     [
      72.322356,
      50.757696
     ],
     [
      72.323889,
      50.757374
     ]
    ]
   }
  },
  {
   "type": "Feature",
   "properties": {
    "kind": "road",
    "road": "minor",
    "src": "streets-2026"
   },
   "geometry": {
    "type": "LineString",
    "coordinates": [
     [
      72.322238,
      50.75773
     ],
     [
      72.32211,
      50.757749
     ],
     [
      72.321678,
      50.757832
     ]
    ]
   }
  },
  {
   "type": "Feature",
   "properties": {
    "kind": "road",
    "road": "minor",
    "src": "streets-2026"
   },
   "geometry": {
    "type": "LineString",
    "coordinates": [
     [
      72.319498,
      50.756981
     ],
     [
      72.319368,
      50.757007
     ],
     [
      72.318545,
      50.757128
     ],
     [
      72.318229,
      50.757222
     ],
     [
      72.318489,
      50.757699
     ],
     [
      72.31852,
      50.757778
     ]
    ]
   }
  },
  {
   "type": "Feature",
   "properties": {
    "kind": "road",
    "road": "minor",
    "src": "streets-2026"
   },
   "geometry": {
    "type": "LineString",
    "coordinates": [
     [
      72.322463,
      50.758058
     ],
     [
      72.322589,
      50.758031
     ],
     [
      72.323363,
      50.757889
     ],
     [
      72.324033,
      50.757691
     ]
    ]
   }
  },
  {
   "type": "Feature",
   "properties": {
    "kind": "road",
    "road": "minor",
    "src": "streets-2026"
   },
   "geometry": {
    "type": "LineString",
    "coordinates": [
     [
      72.324928,
      50.757738
     ],
     [
      72.324828,
      50.757791
     ],
     [
      72.323734,
      50.758119
     ]
    ]
   }
  },
  {
   "type": "Feature",
   "properties": {
    "kind": "road",
    "road": "minor",
    "src": "streets-2026"
   },
   "geometry": {
    "type": "LineString",
    "coordinates": [
     [
      72.322446,
      50.758033
     ],
     [
      72.322331,
      50.758077
     ],
     [
      72.321961,
      50.758137
     ]
    ]
   }
  },
  {
   "type": "Feature",
   "properties": {
    "kind": "road",
    "road": "minor",
    "src": "streets-2026"
   },
   "geometry": {
    "type": "LineString",
    "coordinates": [
     [
      72.31772,
      50.757975
     ],
     [
      72.317688,
      50.757894
     ],
     [
      72.316994,
      50.758001
     ],
     [
      72.316774,
      50.75768
     ]
    ]
   }
  },
  {
   "type": "Feature",
   "properties": {
    "kind": "road",
    "road": "minor",
    "src": "streets-2026"
   },
   "geometry": {
    "type": "LineString",
    "coordinates": [
     [
      72.3234,
      50.758506
     ],
     [
      72.322978,
      50.758596
     ],
     [
      72.322856,
      50.75863
     ]
    ]
   }
  },
  {
   "type": "Feature",
   "properties": {
    "kind": "road",
    "road": "minor",
    "src": "streets-2026"
   },
   "geometry": {
    "type": "LineString",
    "coordinates": [
     [
      72.322856,
      50.75863
     ],
     [
      72.322726,
      50.758655
     ],
     [
      72.322283,
      50.758747
     ]
    ]
   }
  },
  {
   "type": "Feature",
   "properties": {
    "kind": "road",
    "road": "minor",
    "src": "streets-2026"
   },
   "geometry": {
    "type": "LineString",
    "coordinates": [
     [
      72.316166,
      50.758361
     ],
     [
      72.315988,
      50.758199
     ],
     [
      72.314644,
      50.758443
     ]
    ]
   }
  },
  {
   "type": "Feature",
   "properties": {
    "kind": "road",
    "road": "minor",
    "src": "streets-2026"
   },
   "geometry": {
    "type": "LineString",
    "coordinates": [
     [
      72.323248,
      50.759203
     ],
     [
      72.323373,
      50.759176
     ],
     [
      72.323922,
      50.759074
     ]
    ]
   }
  },
  {
   "type": "Feature",
   "properties": {
    "kind": "road",
    "road": "minor",
    "src": "streets-2026"
   },
   "geometry": {
    "type": "LineString",
    "coordinates": [
     [
      72.322645,
      50.759315
     ],
     [
      72.323117,
      50.759218
     ],
     [
      72.323231,
      50.759178
     ]
    ]
   }
  },
  {
   "type": "Feature",
   "properties": {
    "kind": "road",
    "road": "minor",
    "src": "streets-2026"
   },
   "geometry": {
    "type": "LineString",
    "coordinates": [
     [
      72.320342,
      50.761899
     ],
     [
      72.31967,
      50.760969
     ],
     [
      72.319549,
      50.760674
     ],
     [
      72.319314,
      50.760512
     ]
    ]
   }
  },
  {
   "type": "Feature",
   "properties": {
    "kind": "road",
    "road": "minor",
    "src": "streets-2026"
   },
   "geometry": {
    "type": "LineString",
    "coordinates": [
     [
      72.320935,
      50.762776
     ],
     [
      72.321174,
      50.763105
     ],
     [
      72.321279,
      50.76312
     ],
     [
      72.322171,
      50.762937
     ]
    ]
   }
  },
  {
   "type": "Feature",
   "properties": {
    "kind": "road",
    "road": "minor",
    "src": "streets-2026"
   },
   "geometry": {
    "type": "LineString",
    "coordinates": [
     [
      72.327421,
      50.766309
     ],
     [
      72.327309,
      50.766356
     ],
     [
      72.327326,
      50.767332
     ],
     [
      72.327242,
      50.767462
     ]
    ]
   }
  }
 ]
}